{"type": "FeatureCollection", "features": [ {"type": "Feature", "properties": {"norad_id": 29769, "name": "FENGYUN 1C DEB", "group": "fengyun-1c-debris", "lat": 20.374386536987846, "lon": 53.501867939662084, "alt_km": 828.3106192251762, "timestamp": "2025-12-25T09:48:52.561473+00:00", "meta": {"OBJECT_NAME": "FENGYUN 1C DEB", "OBJECT_ID": "1999-025BK", "EPOCH": "2025-12-24T15:01:52.245696", "MEAN_MOTION": 14.13587224, "ECCENTRICITY": 0.00930986, "INCLINATION": 99.1044, "RA_OF_ASC_NODE": 56.1196, "ARG_OF_PERICENTER": 97.3136, "MEAN_ANOMALY": 263.8629, "EPHEMERIS_TYPE": 0, "CLASSIFICATION_TYPE": "U", "NORAD_CAT_ID": 29769, "ELEMENT_SET_NO": 999, "REV_AT_EPOCH": 96849, "BSTAR": 0.001192372, "MEAN_MOTION_DOT": 2.298e-05, "MEAN_MOTION_DDOT": 0}, "tle": {"line1": "1 29769U 99025BK  25358.62629914  .00002298  00000+0  11924-2 0  9999", "line2": "2 29769  99.1044  56.1196 0093098  97.3136 263.8629 14.13587224968497"}}, "geometry": {"type": "Point", "coordinates": [53.501867939662084, 20.374386536987846]}}, {"type": "Feature", "properties": {"norad_id": 29770, "name": "FENGYUN 1C DEB", "group": "fengyun-1c-debris", "lat": 70.24676930173551, "lon": -79.32353116745549, "alt_km": 845.6042970440667, "timestamp": "2025-12-25T09:48:52.561484+00:00", "meta": {"OBJECT_NAME": "FENGYUN 1C DEB", "OBJECT_ID": "1999-025BL", "EPOCH": "2025-12-24T18:41:56.299776", "MEAN_MOTION": 14.20186053, "ECCENTRICITY": 0.00639206, "INCLINATION": 98.8452, "RA_OF_ASC_NODE": 74.349, "ARG_OF_PERICENTER": 236.8219, "MEAN_ANOMALY": 253.213, "EPHEMERIS_TYPE": 0, "CLASSIFICATION_TYPE": "U", "NORAD_CAT_ID": 29770, "ELEMENT_SET_NO": 999, "REV_AT_EPOCH": 97257, "BSTAR": 0.0014500088, "MEAN_MOTION_DOT": 3.115e-05, "MEAN_MOTION_DDOT": 0}, "tle": {"line1": "1 29770U 99025BL  25358.77912384  .00003115  00000+0  14500-2 0  9995", "line2": "2 29770  98.8452  74.3490 0063920 236.8219 253.2130 14.20186053972577"}}, "geometry": {"type": "Point", "coordinates": [-79.32353116745549, 70.24676930173551]}}, {"type": "Feature", "properties": {"norad_id": 29772, "name": "FENGYUN 1C DEB", "group": "fengyun-1c-debris", "lat": -21.674388254488033, "lon": -149.01492944051654, "alt_km": 874.9064534337958, "timestamp": "2025-12-25T09:48:52.561494+00:00", "meta": {"OBJECT_NAME": "FENGYUN 1C DEB", "OBJECT_ID": "1999-025BN", "EPOCH": "2025-12-24T13:39:37.897632", "MEAN_MOTION": 14.03249705, "ECCENTRICITY": 0.01369059, "INCLINATION": 98.3837, "RA_OF_ASC_NODE": 206.8509, "ARG_OF_PERICENTER": 257.2434, "MEAN_ANOMALY": 159.5842, "EPHEMERIS_TYPE": 0, "CLASSIFICATION_TYPE": "U", "NORAD_CAT_ID": 29772, "ELEMENT_SET_NO": 999, "REV_AT_EPOCH": 96421, "BSTAR": 0.00095382365, "MEAN_MOTION_DOT": 1.576e-05, "MEAN_MOTION_DDOT": 0}, "tle": {"line1": "1 29772U 99025BN  25358.56918863  .00001576  00000+0  95382-3 0  9999", "line2": "2 29772  98.3837 206.8509 0136905 257.2434 159.5842 14.03249705964219"}}, "geometry": {"type": "Point", "coordinates": [-149.01492944051654, -21.674388254488033]}}, {"type": "Feature", "properties": {"norad_id": 29773, "name": "FENGYUN 1C DEB", "group": "fengyun-1c-debris", "lat": 52.76260296461439, "lon": 141.35175174318772, "alt_km": 826.2099601775299, "timestamp": "2025-12-25T09:48:52.561504+00:00", "meta": {"OBJECT_NAME": "FENGYUN 1C DEB", "OBJECT_ID": "1999-025BP", "EPOCH": "2025-12-24T22:22:56.728128", "MEAN_MOTION": 14.27592734, "ECCENTRICITY": 0.00465086, "INCLINATION": 98.9878, "RA_OF_ASC_NODE": 152.8806, "ARG_OF_PERICENTER": 254.9093, "MEAN_ANOMALY": 231.9884, "EPHEMERIS_TYPE": 0, "CLASSIFICATION_TYPE": "U", "NORAD_CAT_ID": 29773, "ELEMENT_SET_NO": 999, "REV_AT_EPOCH": 98371, "BSTAR": 0.00039342161, "MEAN_MOTION_DOT": 9.32e-06, "MEAN_MOTION_DDOT": 0}, "tle": {"line1": "1 29773U 99025BP  25358.93260102  .00000932  00000+0  39342-3 0  9996", "line2": "2 29773  98.9878 152.8806 0046508 254.9093 231.9884 14.27592734983711"}}, "geometry": {"type": "Point", "coordinates": [141.35175174318772, 52.76260296461439]}}, {"type": "Feature", "properties": {"norad_id": 29774, "name": "FENGYUN 1C DEB", "group": "fengyun-1c-debris", "lat": 19.374082987095615, "lon": 123.34116447405106, "alt_km": 804.9912720451721, "timestamp": "2025-12-25T09:48:52.561514+00:00", "meta": {"OBJECT_NAME": "FENGYUN 1C DEB", "OBJECT_ID": "1999-025BQ", "EPOCH": "2025-12-24T19:49:25.836672", "MEAN_MOTION": 14.22741986, "ECCENTRICITY": 0.00513371, "INCLINATION": 99.0781, "RA_OF_ASC_NODE": 299.5177, "ARG_OF_PERICENTER": 89.2825, "MEAN_ANOMALY": 326.3014, "EPHEMERIS_TYPE": 0, "CLASSIFICATION_TYPE": "U", "NORAD_CAT_ID": 29774, "ELEMENT_SET_NO": 999, "REV_AT_EPOCH": 98247, "BSTAR": 0.0001799684, "MEAN_MOTION_DOT": 3.62e-06, "MEAN_MOTION_DDOT": 0}, "tle": {"line1": "1 29774U 99025BQ  25358.82599348  .00000362  00000+0  17997-3 0  9991", "line2": "2 29774  99.0781 299.5177 0051337  89.2825 326.3014 14.22741986982471"}}, "geometry": {"type": "Point", "coordinates": [123.34116447405106, 19.374082987095615]}}, {"type": "Feature", "properties": {"norad_id": 29776, "name": "FENGYUN 1C DEB", "group": "fengyun-1c-debris", "lat": 79.80672900967699, "lon": -33.3546027697108, "alt_km": 873.8752059784911, "timestamp": "2025-12-25T09:48:52.561524+00:00", "meta": {"OBJECT_NAME": "FENGYUN 1C DEB", "OBJECT_ID": "1999-025BS", "EPOCH": "2025-12-24T20:36:36.895104", "MEAN_MOTION": 14.0778167, "ECCENTRICITY": 0.00230345, "INCLINATION": 98.77, "RA_OF_ASC_NODE": 25.2627, "ARG_OF_PERICENTER": 235.4373, "MEAN_ANOMALY": 302.7252, "EPHEMERIS_TYPE": 0, "CLASSIFICATION_TYPE": "U", "NORAD_CAT_ID": 29776, "ELEMENT_SET_NO": 999, "REV_AT_EPOCH": 97250, "BSTAR": 7.0235943e-05, "MEAN_MOTION_DOT": 7.6e-07, "MEAN_MOTION_DDOT": 0}, "tle": {"line1": "1 29776U 99025BS  25358.85876036  .00000076  00000+0  70236-4 0  9996", "line2": "2 29776  98.7700  25.2627 0023034 235.4373 302.7252 14.07781670972502"}}, "geometry": {"type": "Point", "coordinates": [-33.3546027697108, 79.80672900967699]}}, {"type": "Feature", "properties": {"norad_id": 29777, "name": "FENGYUN 1C DEB", "group": "fengyun-1c-debris", "lat": 42.47941376718334, "lon": -115.10194059034309, "alt_km": 864.3601587687117, "timestamp": "2025-12-25T09:48:52.561534+00:00", "meta": {"OBJECT_NAME": "FENGYUN 1C DEB", "OBJECT_ID": "1999-025BT", "EPOCH": "2025-12-24T16:28:31.485792", "MEAN_MOTION": 13.92109383, "ECCENTRICITY": 0.00931989, "INCLINATION": 99.2817, "RA_OF_ASC_NODE": 55.5631, "ARG_OF_PERICENTER": 177.4327, "MEAN_ANOMALY": 301.2179, "EPHEMERIS_TYPE": 0, "CLASSIFICATION_TYPE": "U", "NORAD_CAT_ID": 29777, "ELEMENT_SET_NO": 999, "REV_AT_EPOCH": 96207, "BSTAR": 0.00023704561, "MEAN_MOTION_DOT": 2.69e-06, "MEAN_MOTION_DDOT": 0}, "tle": {"line1": "1 29777U 99025BT  25358.68647553  .00000269  00000+0  23705-3 0  9990", "line2": "2 29777  99.2817  55.5631 0093198 177.4327 301.2179 13.92109383962072"}}, "geometry": {"type": "Point", "coordinates": [-115.10194059034309, 42.47941376718334]}}, {"type": "Feature", "properties": {"norad_id": 29779, "name": "FENGYUN 1C DEB", "group": "fengyun-1c-debris", "lat": -11.52673266849974, "lon": 12.050158516045315, "alt_km": 887.097482355327, "timestamp": "2025-12-25T09:48:52.561545+00:00", "meta": {"OBJECT_NAME": "FENGYUN 1C DEB", "OBJECT_ID": "1999-025BV", "EPOCH": "2025-12-24T11:47:02.567616", "MEAN_MOTION": 14.1345291, "ECCENTRICITY": 0.0063983, "INCLINATION": 98.6769, "RA_OF_ASC_NODE": 9.3752, "ARG_OF_PERICENTER": 130.9564, "MEAN_ANOMALY": 229.7171, "EPHEMERIS_TYPE": 0, "CLASSIFICATION_TYPE": "U", "NORAD_CAT_ID": 29779, "ELEMENT_SET_NO": 999, "REV_AT_EPOCH": 97578, "BSTAR": 0.0002107847, "MEAN_MOTION_DOT": 3.62e-06, "MEAN_MOTION_DDOT": 0}, "tle": {"line1": "1 29779U 99025BV  25358.49100194  .00000362  00000+0  21078-3 0  9991", "line2": "2 29779  98.6769   9.3752 0063983 130.9564 229.7171 14.13452910975789"}}, "geometry": {"type": "Point", "coordinates": [12.050158516045315, -11.52673266849974]}}, {"type": "Feature", "properties": {"norad_id": 29780, "name": "FENGYUN 1C DEB", "group": "fengyun-1c-debris", "lat": 73.46582750405184, "lon": 134.38112490218285, "alt_km": 785.0119434619901, "timestamp": "2025-12-25T09:48:52.561574+00:00", "meta": {"OBJECT_NAME": "FENGYUN 1C DEB", "OBJECT_ID": "1999-025BW", "EPOCH": "2025-12-24T18:07:24.137472", "MEAN_MOTION": 14.21120618, "ECCENTRICITY": 0.00418262, "INCLINATION": 99.2783, "RA_OF_ASC_NODE": 280.2822, "ARG_OF_PERICENTER": 93.4825, "MEAN_ANOMALY": 267.1135, "EPHEMERIS_TYPE": 0, "CLASSIFICATION_TYPE": "U", "NORAD_CAT_ID": 29780, "ELEMENT_SET_NO": 999, "REV_AT_EPOCH": 97249, "BSTAR": 0.0017006573, "MEAN_MOTION_DOT": 3.681e-05, "MEAN_MOTION_DDOT": 0}, "tle": {"line1": "1 29780U 99025BW  25358.75514048  .00003681  00000+0  17007-2 0  9992", "line2": "2 29780  99.2783 280.2822 0041826  93.4825 267.1135 14.21120618972494"}}, "geometry": {"type": "Point", "coordinates": [134.38112490218285, 73.46582750405184]}}, {"type": "Feature", "properties": {"norad_id": 29781, "name": "FENGYUN 1C DEB", "group": "fengyun-1c-debris", "lat": 50.56226842643501, "lon": -17.665853864796812, "alt_km": 867.0962519679142, "timestamp": "2025-12-25T09:48:52.561586+00:00", "meta": {"OBJECT_NAME": "FENGYUN 1C DEB", "OBJECT_ID": "1999-025BX", "EPOCH": "2025-12-24T12:05:02.959008", "MEAN_MOTION": 14.05254408, "ECCENTRICITY": 0.00723542, "INCLINATION": 98.8106, "RA_OF_ASC_NODE": 352.3234, "ARG_OF_PERICENTER": 140.2032, "MEAN_ANOMALY": 14.1078, "EPHEMERIS_TYPE": 0, "CLASSIFICATION_TYPE": "U", "NORAD_CAT_ID": 29781, "ELEMENT_SET_NO": 999, "REV_AT_EPOCH": 96808, "BSTAR": 0.00063001358, "MEAN_MOTION_DOT": 1.001e-05, "MEAN_MOTION_DDOT": 0}, "tle": {"line1": "1 29781U 99025BX  25358.50350647  .00001001  00000+0  63001-3 0  9999", "line2": "2 29781  98.8106 352.3234 0072354 140.2032  14.1078 14.05254408968081"}}, "geometry": {"type": "Point", "coordinates": [-17.665853864796812, 50.56226842643501]}}]}